[{"OBJECT_NAME":"STARLINK-3811","OBJECT_ID":"2022-045BE","EPOCH":"2026-03-09T14:54:01.530720","MEAN_MOTION":15.08838033,"ECCENTRICITY":0.0001242,"INCLINATION":53.218,"RA_OF_ASC_NODE":179.4614,"ARG_OF_PERICENTER":93.7502,"MEAN_ANOMALY":266.3632,"EPHEMERIS_TYPE":0,"CLASSIFICATION_TYPE":"U","NORAD_CAT_ID":52383,"ELEMENT_SET_NO":999,"REV_AT_EPOCH":21605,"BSTAR":2.6212e-5,"MEAN_MOTION_DOT":1.29e-6,"MEAN_MOTION_DDOT":0},{"OBJECT_NAME":"TITAN 3C TRANSTAGE DEB","OBJECT_ID":"1965-082PP","EPOCH":"2026-03-08T23:49:16.681152","MEAN_MOTION":15.10619215,"ECCENTRICITY":0.0014169,"INCLINATION":32.2612,"RA_OF_ASC_NODE":312.9247,"ARG_OF_PERICENTER":37.7873,"MEAN_ANOMALY":322.3781,"EPHEMERIS_TYPE":0,"CLASSIFICATION_TYPE":"U","NORAD_CAT_ID":3454,"ELEMENT_SET_NO":999,"REV_AT_EPOCH":23071,"BSTAR":0.00075143557,"MEAN_MOTION_DOT":0.00012814,"MEAN_MOTION_DDOT":0}]
